IRIDIUM 166             
1 43570U 18061B   25002.21705761  .00001159  00000+0  40682-3 0  9991
2 43570  86.3965 278.6061 0001958  91.1442 268.9978 14.34225080337294
IRIDIUM 158             
1 43571U 18061C   25002.46442000  .00000687  00000+0  23828-3 0  9991
2 43571  86.3967 278.5124 0001808  80.2924 279.8476 14.34222408337299
IRIDIUM 165             
1 43572U 18061D   25002.21072381 -.00000099  00000+0 -42379-4 0  9998
2 43572  86.3964 278.6546 0002093  84.1653 275.9781 14.34216566337288
IRIDIUM 155             
1 43573U 18061E   25002.17266101  .00001276  00000+0  44850-3 0  9990
2 43573  86.3973 278.5663 0001900  89.2589 270.8824 14.34215948337250
IRIDIUM 154             
1 43574U 18061F   25002.22339633  .00001381  00000+0  48595-3 0  9995
2 43574  86.3969 278.6522 0002174  82.4082 277.7361 14.34226952337303
IRIDIUM 163             
1 43575U 18061G   25002.27414714  .00000802  00000+0  27934-3 0  9996
2 43575  86.3961 278.5628 0002064  81.6200 278.5230 14.34220353337283
IRIDIUM 156             
1 43576U 18061H   25001.83015804  .00001716  00000+0  60535-3 0  9994
2 43576  86.3966 278.7553 0001776  90.2475 269.8925 14.34227321337205
IRIDIUM 164             
1 43577U 18061J   25002.15996071  .00002297  00000+0  81280-3 0  9990
2 43577  86.3967 278.6493 0002288  86.7625 273.3832 14.34234753337300
